ONEWEB-0196             
1 48218U 21031J   24212.86297602 -.00000146  00000+0 -42964-3 0  9991
2 48218  87.8929  66.2275 0001706  83.4452 276.6872 13.14504628158068
ONEWEB-0183             
1 48219U 21031K   24213.14207441  .00000036  00000+0  61371-4 0  9996
2 48219  87.8928  66.1879 0001862  87.6253 272.5090 13.14501290158198
ONEWEB-0185             
1 48220U 21031L   24212.86376248 -.00000295  00000+0 -83129-3 0  9991
2 48220  87.8929  66.2155 0001859  89.8679 270.2664 13.14501799158085
ONEWEB-0187             
1 48221U 21031M   24213.13811174  .00000123  00000+0  29764-3 0  9998
2 48221  87.8929  66.1938 0001812  87.9428 272.1909 13.14501232158135
ONEWEB-0192             
1 48222U 21031N   24212.88992822 -.00000103  00000+0 -31367-3 0  9992
2 48222  87.8929  66.2408 0001668  84.4677 275.6643 13.14502724158013
ONEWEB-0202             
1 48224U 21031Q   24212.85028351 -.00000141  00000+0 -41399-3 0  9996
2 48224  87.8928  66.2411 0000985  99.4995 260.6246 13.14501175158199
ONEWEB-0204             
1 48225U 21031R   24212.96049698  .00000181  00000+0  45240-3 0  9997
2 48225  87.8927  66.2316 0002185  84.6037 275.5342 13.14504366158108
